INTELSAT 10 (IS-10)     
1 26766U 01019A   18061.49421045  .00000098  00000-0  00000-0 0  9990
2 26766   2.0604  83.9660 0002602 259.9862  41.6694  1.00271283 15262
INTELSAT 901 (IS-901)   
1 26824U 01024A   18061.52337683 -.00000170  00000-0  00000-0 0  9991
2 26824   0.0325 100.1747 0002261 296.9162 293.5344  1.00270090 61220
ASTRA 2C                
1 26853U 01025A   18061.48934781  .00000017  00000-0  00000-0 0  9990
2 26853   0.9508  90.9052 0003676 251.1519  54.6055  1.00273607 14689
INTELSAT 902 (IS-902)   
1 26900U 01039A   18061.48917420  .00000004  00000-0  00000+0 0  9994
2 26900   0.0206 115.0821 0002864 231.9862  51.2285  1.00271957 60401
EUTELSAT 12 WEST B      
1 26927U 01042A   18061.57856473 -.00000129  00000-0  00000-0 0  9997
2 26927   0.0676  19.0271 0006219 322.1840  14.8607  1.00271353 60144
DIRECTV 4S              
1 26985U 01052A   18061.45882649 -.00000142  00000-0  00000+0 0  9997
2 26985   0.0117 129.7236 0003023 214.9105 239.5169  1.00271599 59622
ECHOSTAR 7              
1 27378U 02006A   18061.49664087 -.00000029  00000-0  00000+0 0  9996
2 27378   0.0523 298.0643 0001682  21.7166 260.4056  1.00270866 58692
INTELSAT 904 (IS-904)   
1 27380U 02007A   18061.49421045  .00000108  00000-0  00000-0 0  9993
2 27380   0.0132 150.9625 0002928 187.8481  44.3877  1.00271851 21397
TDRS 9                  
1 27389U 02011A   18061.24325212 -.00000127  00000-0  00000-0 0  9991
2 27389   5.7757  76.0198 0024029 252.6949 266.5926  1.00272909 60076
JCSAT 2A                
1 27399U 02015A   18061.05274990 -.00000283  00000-0  00000-0 0  9994
2 27399   1.0297  91.1676 0008049 185.6625 354.9363  1.00271487 58528
ASTRA 3A                
1 27400U 02015B   18060.87585258 -.00000308  00000-0  00000-0 0  9996
2 27400   4.3030  67.5752 0002811 273.7497  86.5192  1.00267652 58359
INTELSAT 903 (IS-903)   
1 27403U 02016A   18061.55248666 -.00000252  00000-0  00000-0 0  9993
2 27403   0.3958  95.1251 0001731 280.3141 312.2034  1.00273627 15309
NSS-7                   
1 27414U 02019A   18060.84062878 -.00000184  00000-0  00000-0 0  9992
2 27414   2.4295  81.7069 0002760 278.4523  82.0289  1.00271784 58191
DIRECTV 5 (TEMPO 1)     
1 27426U 02023A   18060.86250744 -.00000084  00000-0  00000-0 0  9992
2 27426   0.0037 159.9332 0003712 190.0911   9.9337  1.00271648 57933
INTELSAT 905 (IS-905)   
1 27438U 02027A   18061.52806330 -.00000213  00000-0  00000-0 0  9995
2 27438   0.0247 218.9679 0003013 101.5574   5.3021  1.00272593 57597
EXPRESS-A4              
1 27441U 02029A   18061.42625237 -.00000271  00000-0  00000+0 0  9998
2 27441   6.4888  54.9262 0003206  63.3427 340.7550  1.00271013 57605
GALAXY 3C (G-3C)        
1 27445U 02030A   18060.82073488 -.00000180  00000-0  00000-0 0  9992
2 27445   0.0117 173.3258 0000547 205.9277 340.7485  1.00271144 16211
EUTELSAT 5 WEST A       
1 27460U 02035A   18060.57129028 -.00000071  00000-0  00000-0 0  9997
2 27460   0.0508  35.2889 0006073 309.1373  15.5205  1.00272425 57251
N-STAR C                
1 27461U 02035B   18060.93032265 -.00000336  00000-0  00000-0 0  9998
2 27461   5.1045  63.3999 0003076 324.8173 242.3520  1.00274328 57355
EUTELSAT 36 WEST A      
1 27508U 02040A   18060.49277062  .00000111  00000-0  00000-0 0  9993
2 27508   0.0651  18.3406 0003884 101.6290 240.0347  1.00904734 56829
METEOSAT-8 (MSG-1)      
1 27509U 02040B   18060.60201884  .00000115  00000-0  00000-0 0  9990
2 27509   5.2833  57.3800 0003014 309.0168  51.1871  1.00263650 56876
INTELSAT 906 (IS-906)   
1 27513U 02041A   18061.48452062 -.00000014  00000-0  00000+0 0  9997
2 27513   0.0134 149.4857 0003195 197.0501  52.2218  1.00270333 56603
KALPANA-1 (METSAT 1)    
1 27525U 02043A   18057.51255309 -.00000094  00000-0  00000+0 0  9994
2 27525   6.7646  53.6359 0015602 244.8879 115.1007  1.00273078 56632
HISPASAT 1D             
1 27528U 02044A   18061.40184931 -.00000245  00000-0  00000+0 0  9991
2 27528   0.0128 289.0670 0005915  48.9908 296.7585  1.00268774 56577
TDRS 10                 
1 27566U 02055A   18061.19957296  .00000053  00000-0  00000-0 0  9990
2 27566   5.4754  57.2852 0012737 243.6524 116.4379  1.00269300 55864
NSS-6                   
1 27603U 02057A   18061.47822669 -.00000298  00000-0  00000+0 0  9991
2 27603   0.0245 152.7930 0002606 168.5439 106.0366  1.00269799 55722
NIMIQ 2                 
1 27632U 02062A   18060.53509513 -.00000253  00000-0  00000-0 0  9997
2 27632   2.5299  80.8775 0000598 319.1898  41.2925  1.00267597 13830
INTELSAT 907 (IS-907)   
1 27683U 03007A   18060.63364072 -.00000231  00000-0  00000+0 0  9998
2 27683   0.0103 164.9253 0003099 176.5824  18.4464  1.00272977 55019
GALAXY 12 (G-12)        
1 27715U 03013B   18061.41629027  .00000030  00000-0  00000-0 0  9999
2 27715   0.0522 294.9558 0001912  45.0772 200.9547  1.00272833 21773
ASIASAT 4               
1 27718U 03014A   18061.49907053  .00000124  00000-0  00000-0 0  9993
2 27718   0.0175 126.0884 0002221  69.9804 182.0088  1.00272229 54553
HELLAS-SAT 2            
1 27811U 03020A   18061.49907053  .00000123  00000-0  00000-0 0  9993
2 27811   0.0532 175.2668 0003656 135.5731  68.0149  1.00272259 12482
THURAYA-2               
1 27825U 03026A   18061.66528060  .00000105  00000-0  00000-0 0  9990
2 27825   5.1437  30.1416 0005384 306.0927 107.6231  1.00272156 53987
OPTUS C1                
1 27831U 03028B   18061.42652679 -.00000176  00000-0  00000-0 0  9996
2 27831   0.0420 219.3284 0002624 126.3372 124.0339  1.00272416 22689
ECHOSTAR 12 (RAINBOW 1) 
1 27852U 03033A   18061.51643376 -.00000227  00000-0  00000-0 0  9996
2 27852   0.0517 296.2626 0001778  73.2570 250.2299  1.00271138 53605
GALAXY 23 (G-23)        
1 27854U 03034A   18061.49664087 -.00000015  00000-0  00000-0 0  9993
2 27854   0.0226 230.7245 0002890 115.8138 231.4705  1.00272163 53379
GALAXY 13 (HORIZONS-1)  
1 27954U 03044A   18061.27514627  .00000019  00000-0  00000+0 0  9997
2 27954   0.0256 124.1700 0001350 217.1822 150.6619  1.00272223 52788
YAMAL 202               
1 28089U 03053A   18061.62098531  .00000091  00000-0  00000-0 0  9998
2 28089   0.0576 100.5020 0002716 215.0325 117.3267  1.00271847 52317
EXPRESS-AM22 (SESAT 2)  
1 28134U 03060A   18061.43657167 -.00000165  00000-0  00000+0 0  9994
2 28134   1.0016  90.4432 0000274 247.6528  59.3134  1.00271651 51900
AMC-10 (GE-10)          
1 28154U 04003A   18061.51657198  .00000060  00000-0  00000-0 0  9991
2 28154   0.0512 296.3203 0001594  73.9964 200.8537  1.00271763 51538
ABS-4 (MOBISAT-1)       
1 28184U 04007A   18061.48934781  .00000012  00000-0  00000+0 0  9996
2 28184   0.0223 240.0969 0001552 100.8792  56.3825  1.00271476 51218
EUTELSAT 7A             
1 28187U 04008A   18061.38243763  .00000018  00000-0  00000-0 0  9999
2 28187   0.0695 341.3912 0003294 356.4543 326.9106  1.00270544 51005
DIRECTV 7S              
1 28238U 04016A   18061.46365372 -.00000027  00000-0  00000-0 0  9996
2 28238   0.0158 144.1524 0003299 203.7448 220.1434  1.00270818 50706
AMC-11 (GE-11)          
1 28252U 04017A   18061.44559858  .00000040  00000-0  00000+0 0  9998
2 28252   0.0595 308.0894 0002872  40.7841 200.6946  1.00273399 50337
INTELSAT 10-02          
1 28358U 04022A   18061.38726480 -.00000040  00000-0  00000+0 0  9992
2 28358   0.0147 145.9256 0000429 164.8339 347.7562  1.00272392 50253
APSTAR 5 (TELSTAR 18)   
1 28364U 04024A   18060.93032265 -.00000323  00000-0  00000-0 0  9997
2 28364   0.0474 280.0636 0003398  73.9700 278.5222  1.00270650 50244
ANIK F2                 
1 28378U 04027A   18061.49664087 -.00000078  00000-0  00000-0 0  9997
2 28378   0.0256 132.9356 0000210 232.0304 222.9790  1.00269527 49982
AMC-15                  
1 28446U 04041A   18061.57566309 -.00000117  00000-0  00000-0 0  9990
2 28446   0.0541 308.2328 0002912  39.5604 274.6654  1.00271861 49028
AMC-16                  
1 28472U 04048A   18061.45393163 -.00000235  00000-0  00000+0 0  9999
2 28472   0.0567 305.5856 0002715  36.5322 256.4559  1.00270753 48442
NSS-10 (AMC-12)         
1 28526U 05003A   18061.53309954 -.00000279  00000-0  00000-0 0  9994
2 28526   0.0656 291.3406 0003004  57.2887 326.0660  1.00270615 22808
XTAR-EUR                
1 28542U 05005A   18061.47443536  .00000122  00000-0  00000-0 0  9998
2 28542   0.0287 105.2464 0003256 254.3686   0.3502  1.00272354 47816
XM-3 (RHYTHM)           
1 28626U 05008A   18061.51643376 -.00000234  00000-0  00000-0 0  9998
2 28626   0.0168 328.4245 0000150 110.4105 182.1810  1.00270423 47693
INMARSAT 4-F1           
1 28628U 05009A   18061.20155976 -.00000287  00000-0  00000-0 0  9999
2 28628   2.9091  15.6402 0003281 334.6060  25.7093  1.00273198 47304
APSTAR 6                
1 28638U 05012A   18061.49446940 -.00000347  00000-0  00000-0 0  9996
2 28638   0.0201 111.3142 0002850 231.8126 129.0893  1.00271379 72048
SPACEWAY 1              
1 28644U 05015A   18061.46854858 -.00000131  00000-0  00000-0 0  9995
2 28644   0.0428 304.8197 0000363  31.1958 249.9049  1.00273008 16219
DIRECTV 8               
1 28659U 05019A   18060.83685015 -.00000144  00000-0  00000-0 0  9996
2 28659   0.0113 118.6680 0003348 224.7562  16.5302  1.00271524 46776
GALAXY 28 (G-28)        
1 28702U 05022A   18061.45393163 -.00000213  00000-0  00000-0 0  9995
2 28702   0.0101 203.5610 0000388  44.6811 346.3256  1.00269071 21742
EXPRESS-AM3             
1 28707U 05023A   18060.69837644 -.00000351  00000-0  00000-0 0  9996
2 28707   0.0540 296.0107 0001220 339.0514 238.7590  1.00271646 46472
THAICOM 4               
1 28786U 05028A   18061.27827036 -.00000392  00000-0  00000-0 0  9992
2 28786   0.0266 137.8268 0002376 204.4977  37.3421  1.00268345 45955
GALAXY 14 (G-14)        
1 28790U 05030A   18061.50118792  .00000008  00000-0  00000-0 0  9991
2 28790   0.0527 297.9645 0002736  47.6752 229.9899  1.00271137 45945
